EKRAN 2                 
1 10365U 77092A   26065.03071437 -.00000308  00000+0  00000+0 0  9994
2 10365   4.5016 276.0470 0042587  16.7137 341.1756  1.00278406133811
METEOSAT-1              
1 10489U 77108A   26065.22753522  .00000077  00000+0  00000+0 0  9994
2 10489   5.3352 282.3140 0010748  84.6704 251.5297  1.00290930136174
INTELSAT 4A-F3          
1 10557U 78002A   26064.87370265  .00000087  00000+0  00000+0 0  9994
2 10557   9.1875 313.3377 0004790 314.3688 236.9724  0.99910134 47718
INTELSAT 4A-F6          
1 10778U 78035A   26064.96747640 -.00000296  00000+0  00000+0 0  9993
2 10778   8.9696 312.3590 0008705 319.1043  20.0197  1.00293442121128
OPS 8790                
1 10787U 78038A   26065.22909523  .00000130  00000+0  00000+0 0  9992
2 10787   3.7502 323.0058 0017505 303.6313   0.2794  1.00478196 24228
YURI (BS)               
1 10792U 78039A   26065.09623465 -.00000032  00000+0  00000+0 0  9994
2 10792   5.7291 285.0205 0019317 331.5109  11.6952  1.00198630117720
RADUGA 4                
1 10987U 78073A   26065.03270771 -.00000355  00000+0  00000+0 0  9998
2 10987   5.0493 279.8241 0011836  33.2722 331.5796  1.00248703118570
EKRAN 3                 
1 11273U 79015A   26065.16634829 -.00000004  00000+0  00000+0 0  9997
2 11273   5.3795 282.7457 0041915   8.0747 356.8959  1.00322348133988
RADUGA 5                
1 11343U 79035A   26065.07802872 -.00000105  00000+0  00000+0 0  9994
2 11343   5.5520 283.5288 0002620 226.5644 117.0410  1.00296564128329
GORIZONT 2              
1 11440U 79062A   26065.08809591 -.00000109  00000+0  00000+0 0  9992
2 11440   5.9909 286.9113 0006813   0.2059 345.3910  1.00236712136982
WESTAR 3                
1 11484U 79072A   26065.07439455 -.00000292  00000+0  00000+0 0  9991
2 11484  10.4227 321.8009 0004326 339.4939 208.8637  0.99952568139486
EKRAN 4                 
1 11561U 79087A   26065.10056801 -.00000261  00000+0  00000+0 0  9993
2 11561   5.8506 285.8257 0003477 121.8721 244.1933  1.00304179 46348
SL-12 R/B(2)            
1 11568U 75123F   26065.25674201 -.00000071  00000+0  00000+0 0  9992
2 11568   2.8100 265.8771 0012939 214.2202 296.5567  1.00478898120960
EKRAN 2 DEB             
1 11581U 77092H   26065.23239332  .00000142  00000+0  00000+0 0  9992
2 11581   4.4041 275.4407 0006882 285.8742  73.4803  1.00324081103323
GORIZONT 3              
1 11648U 79105A   26065.09874800 -.00000152  00000+0  00000+0 0  9994
2 11648   6.1802 288.7771 0010752 271.2407  81.6681  1.00197368121444
OPS 6393 (FLTSATCOM 3)  
1 11669U 80004A   26065.14234151 -.00000297  00000+0  00000+0 0  9992
2 11669   6.3822 307.0926 0021065 246.4561 324.5795  1.00193785168829
SL-12 R/B(2)            
1 11676U 75097F   26065.19997509  .00000059  00000+0  00000+0 0  9999
2 11676   2.6236 263.4949 0020911 222.6694 343.2052  1.00095454118101
