[{"OBJECT_NAME":"EKRAN 2","OBJECT_ID":"1977-092A","EPOCH":"2026-03-06T00:44:13.721568","MEAN_MOTION":1.00278406,"ECCENTRICITY":0.00425876,"INCLINATION":4.5016,"RA_OF_ASC_NODE":276.047,"ARG_OF_PERICENTER":16.7137,"MEAN_ANOMALY":341.1756,"EPHEMERIS_TYPE":0,"CLASSIFICATION_TYPE":"U","NORAD_CAT_ID":10365,"ELEMENT_SET_NO":999,"REV_AT_EPOCH":13381,"BSTAR":0,"MEAN_MOTION_DOT":-3.08e-6,"MEAN_MOTION_DDOT":0},{"OBJECT_NAME":"METEOSAT-1","OBJECT_ID":"1977-108A","EPOCH":"2026-03-06T05:27:39.043008","MEAN_MOTION":1.0029093,"ECCENTRICITY":0.00107483,"INCLINATION":5.3352,"RA_OF_ASC_NODE":282.314,"ARG_OF_PERICENTER":84.6704,"MEAN_ANOMALY":251.5297,"EPHEMERIS_TYPE":0,"CLASSIFICATION_TYPE":"U","NORAD_CAT_ID":10489,"ELEMENT_SET_NO":999,"REV_AT_EPOCH":13617,"BSTAR":0,"MEAN_MOTION_DOT":7.7e-7,"MEAN_MOTION_DDOT":0},{"OBJECT_NAME":"INTELSAT 4A-F3","OBJECT_ID":"1978-002A","EPOCH":"2026-03-05T20:58:07.908960","MEAN_MOTION":0.99910134,"ECCENTRICITY":0.000479,"INCLINATION":9.1875,"RA_OF_ASC_NODE":313.3377,"ARG_OF_PERICENTER":314.3688,"MEAN_ANOMALY":236.9724,"EPHEMERIS_TYPE":0,"CLASSIFICATION_TYPE":"U","NORAD_CAT_ID":10557,"ELEMENT_SET_NO":999,"REV_AT_EPOCH":4771,"BSTAR":0,"MEAN_MOTION_DOT":8.7e-7,"MEAN_MOTION_DDOT":0},{"OBJECT_NAME":"INTELSAT 4A-F6","OBJECT_ID":"1978-035A","EPOCH":"2026-03-05T23:13:09.960960","MEAN_MOTION":1.00293442,"ECCENTRICITY":0.00087058,"INCLINATION":8.9696,"RA_OF_ASC_NODE":312.359,"ARG_OF_PERICENTER":319.1043,"MEAN_ANOMALY":20.0197,"EPHEMERIS_TYPE":0,"CLASSIFICATION_TYPE":"U","NORAD_CAT_ID":10778,"ELEMENT_SET_NO":999,"REV_AT_EPOCH":12112,"BSTAR":0,"MEAN_MOTION_DOT":-2.96e-6,"MEAN_MOTION_DDOT":0},{"OBJECT_NAME":"OPS 8790","OBJECT_ID":"1978-038A","EPOCH":"2026-03-06T05:29:53.827872","MEAN_MOTION":1.00478196,"ECCENTRICITY":0.00175053,"INCLINATION":3.7502,"RA_OF_ASC_NODE":323.0058,"ARG_OF_PERICENTER":303.6313,"MEAN_ANOMALY":0.2794,"EPHEMERIS_TYPE":0,"CLASSIFICATION_TYPE":"U","NORAD_CAT_ID":10787,"ELEMENT_SET_NO":999,"REV_AT_EPOCH":2422,"BSTAR":0,"MEAN_MOTION_DOT":1.3e-6,"MEAN_MOTION_DDOT":0},{"OBJECT_NAME":"YURI (BS)","OBJECT_ID":"1978-039A","EPOCH":"2026-03-06T02:18:34.673760","MEAN_MOTION":1.0019863,"ECCENTRICITY":0.0019317,"INCLINATION":5.7291,"RA_OF_ASC_NODE":285.0205,"ARG_OF_PERICENTER":331.5109,"MEAN_ANOMALY":11.6952,"EPHEMERIS_TYPE":0,"CLASSIFICATION_TYPE":"U","NORAD_CAT_ID":10792,"ELEMENT_SET_NO":999,"REV_AT_EPOCH":11772,"BSTAR":0,"MEAN_MOTION_DOT":-3.2e-7,"MEAN_MOTION_DDOT":0},{"OBJECT_NAME":"RADUGA 4","OBJECT_ID":"1978-073A","EPOCH":"2026-03-06T00:47:05.946144","MEAN_MOTION":1.00248703,"ECCENTRICITY":0.00118361,"INCLINATION":5.0493,"RA_OF_ASC_NODE":279.8241,"ARG_OF_PERICENTER":33.2722,"MEAN_ANOMALY":331.5796,"EPHEMERIS_TYPE":0,"CLASSIFICATION_TYPE":"U","NORAD_CAT_ID":10987,"ELEMENT_SET_NO":999,"REV_AT_EPOCH":11857,"BSTAR":0,"MEAN_MOTION_DOT":-3.55e-6,"MEAN_MOTION_DDOT":0},{"OBJECT_NAME":"EKRAN 3","OBJECT_ID":"1979-015A","EPOCH":"2026-03-06T03:59:32.492256","MEAN_MOTION":1.00322348,"ECCENTRICITY":0.00419153,"INCLINATION":5.3795,"RA_OF_ASC_NODE":282.7457,"ARG_OF_PERICENTER":8.0747,"MEAN_ANOMALY":356.8959,"EPHEMERIS_TYPE":0,"CLASSIFICATION_TYPE":"U","NORAD_CAT_ID":11273,"ELEMENT_SET_NO":999,"REV_AT_EPOCH":13398,"BSTAR":0,"MEAN_MOTION_DOT":-4.0e-8,"MEAN_MOTION_DDOT":0},{"OBJECT_NAME":"RADUGA 5","OBJECT_ID":"1979-035A","EPOCH":"2026-03-06T01:52:21.681408","MEAN_MOTION":1.00296564,"ECCENTRICITY":0.00026207,"INCLINATION":5.552,"RA_OF_ASC_NODE":283.5288,"ARG_OF_PERICENTER":226.5644,"MEAN_ANOMALY":117.041,"EPHEMERIS_TYPE":0,"CLASSIFICATION_TYPE":"U","NORAD_CAT_ID":11343,"ELEMENT_SET_NO":999,"REV_AT_EPOCH":12832,"BSTAR":0,"MEAN_MOTION_DOT":-1.05e-6,"MEAN_MOTION_DDOT":0},{"OBJECT_NAME":"GORIZONT 2","OBJECT_ID":"1979-062A","EPOCH":"2026-03-06T02:06:51.486624","MEAN_MOTION":1.00236712,"ECCENTRICITY":0.00068139,"INCLINATION":5.9909,"RA_OF_ASC_NODE":286.9113,"ARG_OF_PERICENTER":0.2059,"MEAN_ANOMALY":345.391,"EPHEMERIS_TYPE":0,"CLASSIFICATION_TYPE":"U","NORAD_CAT_ID":11440,"ELEMENT_SET_NO":999,"REV_AT_EPOCH":13698,"BSTAR":0,"MEAN_MOTION_DOT":-1.09e-6,"MEAN_MOTION_DDOT":0},{"OBJECT_NAME":"WESTAR 3","OBJECT_ID":"1979-072A","EPOCH":"2026-03-06T01:47:07.689120","MEAN_MOTION":0.99952568,"ECCENTRICITY":0.00043268,"INCLINATION":10.4227,"RA_OF_ASC_NODE":321.8009,"ARG_OF_PERICENTER":339.4939,"MEAN_ANOMALY":208.8637,"EPHEMERIS_TYPE":0,"CLASSIFICATION_TYPE":"U","NORAD_CAT_ID":11484,"ELEMENT_SET_NO":999,"REV_AT_EPOCH":13948,"BSTAR":0,"MEAN_MOTION_DOT":-2.92e-6,"MEAN_MOTION_DDOT":0},{"OBJECT_NAME":"EKRAN 4","OBJECT_ID":"1979-087A","EPOCH":"2026-03-06T02:24:49.076064","MEAN_MOTION":1.00304179,"ECCENTRICITY":0.00034776,"INCLINATION":5.8506,"RA_OF_ASC_NODE":285.8257,"ARG_OF_PERICENTER":121.8721,"MEAN_ANOMALY":244.1933,"EPHEMERIS_TYPE":0,"CLASSIFICATION_TYPE":"U","NORAD_CAT_ID":11561,"ELEMENT_SET_NO":999,"REV_AT_EPOCH":4634,"BSTAR":0,"MEAN_MOTION_DOT":-2.61e-6,"MEAN_MOTION_DDOT":0},{"OBJECT_NAME":"SL-12 R/B(2)","OBJECT_ID":"1975-123F","EPOCH":"2026-03-06T06:09:42.509664","MEAN_MOTION":1.00478898,"ECCENTRICITY":0.00129398,"INCLINATION":2.81,"RA_OF_ASC_NODE":265.8771,"ARG_OF_PERICENTER":214.2202,"MEAN_ANOMALY":296.5567,"EPHEMERIS_TYPE":0,"CLASSIFICATION_TYPE":"U","NORAD_CAT_ID":11568,"ELEMENT_SET_NO":999,"REV_AT_EPOCH":12096,"BSTAR":0,"MEAN_MOTION_DOT":-7.1e-7,"MEAN_MOTION_DDOT":0},{"OBJECT_NAME":"EKRAN 2 DEB","OBJECT_ID":"1977-092H","EPOCH":"2026-03-06T05:34:38.782848","MEAN_MOTION":1.00324081,"ECCENTRICITY":0.00068829,"INCLINATION":4.4041,"RA_OF_ASC_NODE":275.4407,"ARG_OF_PERICENTER":285.8742,"MEAN_ANOMALY":73.4803,"EPHEMERIS_TYPE":0,"CLASSIFICATION_TYPE":"U","NORAD_CAT_ID":11581,"ELEMENT_SET_NO":999,"REV_AT_EPOCH":10332,"BSTAR":0,"MEAN_MOTION_DOT":1.42e-6,"MEAN_MOTION_DDOT":0},{"OBJECT_NAME":"GORIZONT 3","OBJECT_ID":"1979-105A","EPOCH":"2026-03-06T02:22:11.827200","MEAN_MOTION":1.00197368,"ECCENTRICITY":0.00107527,"INCLINATION":6.1802,"RA_OF_ASC_NODE":288.7771,"ARG_OF_PERICENTER":271.2407,"MEAN_ANOMALY":81.6681,"EPHEMERIS_TYPE":0,"CLASSIFICATION_TYPE":"U","NORAD_CAT_ID":11648,"ELEMENT_SET_NO":999,"REV_AT_EPOCH":12144,"BSTAR":0,"MEAN_MOTION_DOT":-1.52e-6,"MEAN_MOTION_DDOT":0},{"OBJECT_NAME":"OPS 6393 (FLTSATCOM 3)","OBJECT_ID":"1980-004A","EPOCH":"2026-03-06T03:24:58.306464","MEAN_MOTION":1.00193785,"ECCENTRICITY":0.00210653,"INCLINATION":6.3822,"RA_OF_ASC_NODE":307.0926,"ARG_OF_PERICENTER":246.4561,"MEAN_ANOMALY":324.5795,"EPHEMERIS_TYPE":0,"CLASSIFICATION_TYPE":"U","NORAD_CAT_ID":11669,"ELEMENT_SET_NO":999,"REV_AT_EPOCH":16882,"BSTAR":0,"MEAN_MOTION_DOT":-2.97e-6,"MEAN_MOTION_DDOT":0},{"OBJECT_NAME":"SL-12 R/B(2)","OBJECT_ID":"1975-097F","EPOCH":"2026-03-06T04:47:57.847776","MEAN_MOTION":1.00095454,"ECCENTRICITY":0.00209111,"INCLINATION":2.6236,"RA_OF_ASC_NODE":263.4949,"ARG_OF_PERICENTER":222.6694,"MEAN_ANOMALY":343.2052,"EPHEMERIS_TYPE":0,"CLASSIFICATION_TYPE":"U","NORAD_CAT_ID":11676,"ELEMENT_SET_NO":999,"REV_AT_EPOCH":11810,"BSTAR":0,"MEAN_MOTION_DOT":5.9e-7,"MEAN_MOTION_DDOT":0}]
